NORAD_CAT_ID,OBJECT_NAME,OBJECT_TYPE,EPOCH,MEAN_MOTION,ECCENTRICITY,INCLINATION,RA_OF_ASC_NODE,ARG_OF_PERICENTER,MEAN_ANOMALY,BSTAR,MEAN_MOTION_DOT,MEAN_MOTION_DDOT,TLE_LINE0,TLE_LINE1,TLE_LINE2,SEMIMAJOR_AXIS,PERIOD,APOGEE,PERIGEE,DECAYED
53576.0,STARLINK-4581,PAYLOAD,2022-10-02 14:00:01,15.73171332,0.0004291999999999,53.2147,297.9781,0.9182,272.8712,0.00061729,0.00086838,0.0,0 STARLINK-4581,1 53576U 22101BB  22275.58334491  .00086838  00000-0  61729-3 0  9998,2 53576  53.2147 297.9781 0004292   0.9182 272.8712 15.73171332  6918,6727.977,91.535,352.73,346.954,0.0
53576.0,STARLINK-4581,PAYLOAD,2022-10-02 22:00:00,15.73240418,0.0004072,53.2147,296.3266,3.2239,359.5075,0.000239,0.00033122,0.0,0 STARLINK-4581,1 53576U 22101BB  22275.91667824  .00033122  00000-0  23900-3 0  9991,2 53576  53.2147 296.3266 0004072   3.2239 359.5075 15.73240418  1309,6727.78,91.531,352.384,346.905,0.0
53576.0,STARLINK-4581,PAYLOAD,2022-10-03 06:00:00,15.73264022,0.0004171,53.2144,294.6784,5.1511,86.5725,-0.00052582,-0.00074018,0.0,0 STARLINK-4581,1 53576U 22101BB  22276.25001157 -.00074018  00000-0 -52582-3 0  9999,2 53576  53.2144 294.6784 0004171   5.1511  86.5725 15.73264022  7027,6727.7130000000025,91.529,352.384,346.772,0.0
53576.0,STARLINK-4581,PAYLOAD,2022-10-03 14:00:01,15.73245511,0.0004224999999999,53.2138,293.0295,3.4330000000000003,177.2583,2.2145e-05,2.491e-05,0.0,0 STARLINK-4581,1 53576U 22101BB  22276.58334491  .00002491  00000-0  22145-4 0  9992,2 53576  53.2138 293.0295 0004225   3.4330 177.2583 15.73245511  1307,6727.765,91.531,352.473,346.788,0.0
53576.0,STARLINK-4581,PAYLOAD,2022-10-03 22:00:00,15.73201394,0.0003916,53.214,291.3778,0.4247,269.2636,0.00013994,0.00019069,0.0,0 STARLINK-4581,1 53576U 22101BB  22276.91667824  .00019069  00000-0  13994-3 0  9998,2 53576  53.2140 291.3778 0003916   0.4247 269.2636 15.73201394  1309,6727.891,91.533,352.391,347.122,0.0
53576.0,STARLINK-4581,PAYLOAD,2022-10-04 06:00:00,15.73244255,0.0004016999999999,53.2141,289.7296,357.7577,0.8678,-0.00056971,-0.00080016,0.0,0 STARLINK-4581,1 53576U 22101BB  22277.25001157 -.00080016  00000-0 -56971-3 0  9991,2 53576  53.2141 289.7296 0004017 357.7577   0.8678 15.73244255  7172,6727.769,91.531,352.337,346.931,0.0
53576.0,STARLINK-4581,PAYLOAD,2022-10-04 14:00:01,15.732046400000002,0.0004109,53.2139,288.0805,354.2932,93.2776,-0.00040361,-0.00056928,0.0,0 STARLINK-4581,1 53576U 22101BB  22277.58334491 -.00056928  00000-0 -40361-3 0  9998,2 53576  53.2139 288.0805 0004109 354.2932  93.2776 15.73204640  1304,6727.882,91.533,352.511,346.982,0.0
53576.0,STARLINK-4581,PAYLOAD,2022-10-04 22:00:00,15.73134324,0.0003804,53.2137,286.4292,353.9725,182.5072,0.00074138,0.00104464,0.0,0 STARLINK-4581,1 53576U 22101BB  22277.91667824  .00104464  00000-0  74138-3 0  9990,2 53576  53.2137 286.4292 0003804 353.9725 182.5072 15.73134324  1303,6728.081999999999,91.537,352.50699999999995,347.38800000000015,0.0
53576.0,STARLINK-4581,PAYLOAD,2022-10-05 06:00:00,15.73213399,0.0003969,53.2135,284.7815,359.7235,265.6529,-0.00068709,-0.00096065,0.0,0 STARLINK-4581,1 53576U 22101BB  22278.25001157 -.00096065  00000-0 -68709-3 0  9995,2 53576  53.2135 284.7815 0003969 359.7235 265.6529 15.73213399  7334,6727.857,91.532,352.392,347.052,0.0
53576.0,STARLINK-4581,PAYLOAD,2022-10-05 14:00:01,15.7315345,0.0004088999999999,53.2128,283.1321,4.1984,350.1254,0.00015919,0.0002174,0.0,0 STARLINK-4581,1 53576U 22101BB  22278.58335648  .00021740  00000-0  15919-3 0  9997,2 53576  53.2128 283.1321 0004089   4.1984 350.1254 15.73153450  1304,6728.028,91.536,352.644,347.142,0.0
53576.0,STARLINK-4581,PAYLOAD,2022-10-05 22:00:00,15.73117874,0.0003771999999999,53.2129,281.4807,7.7993,75.3566,0.00071187,0.00100158,0.0,0 STARLINK-4581,1 53576U 22101BB  22278.91667824  .00100158  00000-0  71187-3 0  9998,2 53576  53.2129 281.4807 0003772   7.7993  75.3566 15.73117874  7445,6728.129,91.538,352.532,347.456,0.0
53576.0,STARLINK-4581,PAYLOAD,2022-10-06 14:00:01,15.73222366,0.0003986,53.2128,278.1832,5.9037,255.0704,2.1952e-05,2.461e-05,0.0,0 STARLINK-4581,1 53576U 22101BB  22279.58334491  .00002461  00000-0  21952-4 0  9997,2 53576  53.2128 278.1832 0003986   5.9037 255.0704 15.73222366  1304,6727.831,91.532,352.37800000000016,347.015,0.0
53576.0,STARLINK-4581,PAYLOAD,2022-10-06 22:42:55,15.73201268,0.0003686999999999,53.2134,276.3832,5.2629,153.4998,0.00047412,0.00066469,0.0,0 STARLINK-4581,1 53576U 22101BB  22279.94646991  .00066469  00000-0  47412-3 0  9994,2 53576  53.2134 276.3832 0003687   5.2629 153.4998 15.73201268  7602,6727.892,91.533,352.237,347.276,0.0
53576.0,STARLINK-4581,PAYLOAD,2022-10-07 14:00:01,15.73237784,0.0003948,53.2119,273.2339,1.9427,165.9542,-0.00065651,-0.00091957,0.0,0 STARLINK-4581,1 53576U 22101BB  22280.58334491 -.00091957  00000-0 -65651-3 0  9992,2 53576  53.2119 273.2339 0003948   1.9427 165.9542 15.73237784  1308,6727.7869999999975,91.531,352.309,346.996,0.0
53576.0,STARLINK-4581,PAYLOAD,2022-10-07 22:00:00,15.7314985,0.000367,53.2121,271.5824,3.3979,253.4447,0.00048187,0.00067424,0.0,0 STARLINK-4581,1 53576U 22101BB  22280.91667824  .00067424  00000-0  48187-3 0  9993,2 53576  53.2121 271.5824 0003670   3.3979 253.4447 15.73149850  1304,6728.038000000001,91.536,352.372,347.434,0.0
53576.0,STARLINK-4581,PAYLOAD,2022-10-08 06:00:00,15.73199588,0.0003865,53.2122,269.9347,5.0585,340.6881,-0.00046052,-0.00064789,0.0,0 STARLINK-4581,1 53576U 22101BB  22281.25001157 -.00064789  00000-0 -46052-3 0  9994,2 53576  53.2122 269.9347 0003865   5.0585 340.6881 15.73199588  7809,6727.896,91.533,352.362,347.161,0.0
53576.0,STARLINK-4581,PAYLOAD,2022-10-08 14:00:01,15.73241105,0.0003916,53.213,268.2833,1.4111,73.2608,-0.00052279,-0.00073522,0.0,0 STARLINK-4581,1 53576U 22101BB  22281.58334491 -.00073522  00000-0 -52279-3 0  9993,2 53576  53.2130 268.2833 0003916   1.4111  73.2608 15.73241105  7867,6727.778,91.531,352.278,347.0080000000001,0.0
53576.0,STARLINK-4581,PAYLOAD,2022-10-08 22:00:00,15.73181644,0.0003658,53.2124,266.633,4.2025,159.4195,0.0003611,0.00050335,0.0,0 STARLINK-4581,1 53576U 22101BB  22281.91667824  .00050335  00000-0  36110-3 0  9990,2 53576  53.2124 266.6330 0003658   4.2025 159.4195 15.73181644  1304,6727.948,91.534,352.274,347.351,0.0
53576.0,STARLINK-4581,PAYLOAD,2022-10-09 06:00:00,15.73202095,0.0003877,53.212,264.9856,6.5586,246.0003,0.00013835,0.00018845,0.0,0 STARLINK-4581,1 53576U 22101BB  22282.25001157  .00018845  00000-0  13835-3 0  9998,2 53576  53.2120 264.9856 0003877   6.5586 246.0003 15.73202095  7967,6727.889,91.533,352.36300000000006,347.146,0.0
53576.0,STARLINK-4581,PAYLOAD,2022-10-09 14:00:01,15.73216698,0.0003791,53.2117,263.3352,4.9103,336.5863,7.9015e-05,0.00010491,0.0,0 STARLINK-4581,1 53576U 22101BB  22282.58334491  .00010491  00000-0  79015-4 0  9996,2 53576  53.2117 263.3352 0003791   4.9103 336.5863 15.73216698  1304,6727.848000000001,91.532,352.26300000000015,347.162,0.0
53576.0,STARLINK-4581,PAYLOAD,2022-10-09 22:00:00,15.7322835,0.0003505,53.2121,261.684,4.9827,65.4691,-0.00017405,-0.00025016,0.0,0 STARLINK-4581,1 53576U 22101BB  22282.91667824 -.00025016  00000-0 -17405-3 0  9997,2 53576  53.2121 261.6840 0003505   4.9827  65.4691 15.73228350  1303,6727.814,91.532,352.037,347.321,0.0
53576.0,STARLINK-4581,PAYLOAD,2022-10-10 06:00:00,15.73203109,0.0003782,53.2129,260.0358,6.1812,153.227,-0.00032815,-0.00046451,0.0,0 STARLINK-4581,1 53576U 22101BB  22283.25001157 -.00046451  00000-0 -32815-3 0  9994,2 53576  53.2129 260.0358 0003782   6.1812 153.2270 15.73203109  8124,6727.886,91.533,352.296,347.207,0.0
53576.0,STARLINK-4581,PAYLOAD,2022-10-10 14:00:01,15.73212255,0.0003705,53.213,258.3854,6.4772,241.8964,-0.00026924,-0.00038274,0.0,0 STARLINK-4581,1 53576U 22101BB  22283.58334491 -.00038274  00000-0 -26924-3 0  9998,2 53576  53.2130 258.3854 0003705   6.4772 241.8964 15.73212255  1309,6727.86,91.532,352.218,347.233,0.0
53576.0,STARLINK-4581,PAYLOAD,2022-10-10 22:00:01,15.73318655,0.0003424,53.215,256.7306,7.4294,329.9223,-0.0034449,-0.00461156,0.0,0 STARLINK-4581,1 53576U 22101BB  22283.91668981 -.00461156  00000-0 -34449-2 0  9998,2 53576  53.2150 256.7306 0003424   7.4294 329.9223 15.73318655  1300,6727.557,91.526,351.725,347.11800000000005,0.0
53576.0,STARLINK-4581,PAYLOAD,2022-10-11 06:00:00,15.73166903,0.0003701,53.2135,255.0866,8.3108,57.8978,-0.0005494,-0.00076952,0.0,0 STARLINK-4581,1 53576U 22101BB  22284.25001157 -.00076952  00000-0 -54940-3 0  9997,2 53576  53.2135 255.0866 0003701   8.3108  57.8978 15.73166903  8283,6727.99,91.535,352.345,347.365,0.0
53576.0,STARLINK-4581,PAYLOAD,2022-10-11 14:00:01,15.73066902,0.0003314,53.2165,253.4306,6.2423,148.7957,0.001571,0.00224599,0.0,0 STARLINK-4581,1 53576U 22101BB  22284.58334491  .00224599  00000-0  15710-2 0  9994,2 53576  53.2165 253.4306 0003314   6.2423 148.7957 15.73066902  1305,6728.275,91.541,352.369,347.91,0.0
53576.0,STARLINK-4581,PAYLOAD,2022-10-11 22:00:00,15.73129346,0.0003321,53.2122,251.7864,6.4691,237.391,0.00073895,0.00104084,0.0,0 STARLINK-4581,1 53576U 22101BB  22284.91667824  .00104084  00000-0  73895-3 0  9995,2 53576  53.2122 251.7864 0003321   6.4691 237.3910 15.73129346  8386,6728.097,91.537,352.196,347.727,0.0
53576.0,STARLINK-4581,PAYLOAD,2022-10-12 14:00:01,15.7321544,0.000363,53.215,248.485,7.5606,54.1563,0.00034145,0.00047615,0.0,0 STARLINK-4581,1 53576U 22101BB  22285.58334491  .00047615  00000-0  34145-3 0  9991,2 53576  53.2150 248.4850 0003630   7.5606  54.1563 15.73215440  8498,6727.851,91.532,352.158,347.274,0.0
53576.0,STARLINK-4581,PAYLOAD,2022-10-12 22:00:00,15.73238388,0.000368,53.2169,246.8318,13.0436,137.6486,-0.0003843999999999,-0.00054336,0.0,0 STARLINK-4581,1 53576U 22101BB  22285.91667824 -.00054336  00000-0 -38440-3 0  9999,2 53576  53.2169 246.8318 0003680  13.0436 137.6486 15.73238388  1307,6727.786,91.531,352.12699999999984,347.175,0.0
